[{"OBJECT_NAME":"SL-8 R/B","OBJECT_ID":"1991-006B","EPOCH":"2026-03-23T04:49:17.919840","MEAN_MOTION":13.77496306,"ECCENTRICITY":0.00222227,"INCLINATION":82.9454,"RA_OF_ASC_NODE":160.0014,"ARG_OF_PERICENTER":1.1045,"MEAN_ANOMALY":27.9443,"EPHEMERIS_TYPE":0,"CLASSIFICATION_TYPE":"U","NORAD_CAT_ID":21088,"ELEMENT_SET_NO":999,"REV_AT_EPOCH":76593,"BSTAR":9.7280684e-5,"MEAN_MOTION_DOT":1.12e-6,"MEAN_MOTION_DDOT":0},{"OBJECT_NAME":"OKEAN-3","OBJECT_ID":"1991-039A","EPOCH":"2026-03-23T05:50:54.243168","MEAN_MOTION":15.04887965,"ECCENTRICITY":0.00125604,"INCLINATION":82.5172,"RA_OF_ASC_NODE":323.7128,"ARG_OF_PERICENTER":286.4022,"MEAN_ANOMALY":73.5824,"EPHEMERIS_TYPE":0,"CLASSIFICATION_TYPE":"U","NORAD_CAT_ID":21397,"ELEMENT_SET_NO":999,"REV_AT_EPOCH":86707,"BSTAR":0.0002008249,"MEAN_MOTION_DOT":2.872e-5,"MEAN_MOTION_DDOT":0},{"OBJECT_NAME":"COSMOS 2151","OBJECT_ID":"1991-042A","EPOCH":"2026-03-23T05:22:29.320608","MEAN_MOTION":15.00157808,"ECCENTRICITY":0.0013035,"INCLINATION":82.494,"RA_OF_ASC_NODE":70.6162,"ARG_OF_PERICENTER":22.1002,"MEAN_ANOMALY":338.0781,"EPHEMERIS_TYPE":0,"CLASSIFICATION_TYPE":"U","NORAD_CAT_ID":21422,"ELEMENT_SET_NO":999,"REV_AT_EPOCH":86522,"BSTAR":0.00018130655,"MEAN_MOTION_DOT":2.293e-5,"MEAN_MOTION_DDOT":0},{"OBJECT_NAME":"SL-14 R/B","OBJECT_ID":"1991-042B","EPOCH":"2026-03-23T01:26:47.410080","MEAN_MOTION":14.81842981,"ECCENTRICITY":0.00167176,"INCLINATION":82.4947,"RA_OF_ASC_NODE":207.646,"ARG_OF_PERICENTER":192.4401,"MEAN_ANOMALY":167.6403,"EPHEMERIS_TYPE":0,"CLASSIFICATION_TYPE":"U","NORAD_CAT_ID":21423,"ELEMENT_SET_NO":999,"REV_AT_EPOCH":85505,"BSTAR":6.4818882e-5,"MEAN_MOTION_DOT":5.36e-6,"MEAN_MOTION_DDOT":0},{"OBJECT_NAME":"ERS-1","OBJECT_ID":"1991-050A","EPOCH":"2026-03-23T01:02:30.344928","MEAN_MOTION":14.39459111,"ECCENTRICITY":0.00323811,"INCLINATION":98.7871,"RA_OF_ASC_NODE":100.6132,"ARG_OF_PERICENTER":160.8678,"MEAN_ANOMALY":199.3733,"EPHEMERIS_TYPE":0,"CLASSIFICATION_TYPE":"U","NORAD_CAT_ID":21574,"ELEMENT_SET_NO":999,"REV_AT_EPOCH":81765,"BSTAR":0.00011684675,"MEAN_MOTION_DOT":3.2e-6,"MEAN_MOTION_DDOT":0},{"OBJECT_NAME":"ARIANE 40 R/B","OBJECT_ID":"1991-050F","EPOCH":"2026-03-23T03:09:59.065632","MEAN_MOTION":14.42902894,"ECCENTRICITY":0.00038799,"INCLINATION":98.1984,"RA_OF_ASC_NODE":133.8622,"ARG_OF_PERICENTER":51.6014,"MEAN_ANOMALY":308.5525,"EPHEMERIS_TYPE":0,"CLASSIFICATION_TYPE":"U","NORAD_CAT_ID":21610,"ELEMENT_SET_NO":999,"REV_AT_EPOCH":82093,"BSTAR":0.00010201985,"MEAN_MOTION_DOT":2.99e-6,"MEAN_MOTION_DDOT":0},{"OBJECT_NAME":"INTERCOSMOS 25","OBJECT_ID":"1991-086A","EPOCH":"2026-03-23T02:43:00.121440","MEAN_MOTION":12.12045677,"ECCENTRICITY":0.14867407,"INCLINATION":82.6022,"RA_OF_ASC_NODE":301.8943,"ARG_OF_PERICENTER":88.0096,"MEAN_ANOMALY":288.9953,"EPHEMERIS_TYPE":0,"CLASSIFICATION_TYPE":"U","NORAD_CAT_ID":21819,"ELEMENT_SET_NO":999,"REV_AT_EPOCH":49831,"BSTAR":0.00035295532,"MEAN_MOTION_DOT":1.837e-5,"MEAN_MOTION_DDOT":0},{"OBJECT_NAME":"SL-8 R/B","OBJECT_ID":"1992-008B","EPOCH":"2026-03-23T06:28:25.008960","MEAN_MOTION":13.75969561,"ECCENTRICITY":0.00359279,"INCLINATION":82.9223,"RA_OF_ASC_NODE":257.6732,"ARG_OF_PERICENTER":96.6402,"MEAN_ANOMALY":76.1748,"EPHEMERIS_TYPE":0,"CLASSIFICATION_TYPE":"U","NORAD_CAT_ID":21876,"ELEMENT_SET_NO":999,"REV_AT_EPOCH":71128,"BSTAR":-1.1747303e-5,"MEAN_MOTION_DOT":4.0e-8,"MEAN_MOTION_DDOT":0},{"OBJECT_NAME":"SL-8 R/B","OBJECT_ID":"1992-020B","EPOCH":"2026-03-23T05:19:02.208576","MEAN_MOTION":13.75550353,"ECCENTRICITY":0.00276024,"INCLINATION":82.9315,"RA_OF_ASC_NODE":143.7152,"ARG_OF_PERICENTER":259.1994,"MEAN_ANOMALY":161.1255,"EPHEMERIS_TYPE":0,"CLASSIFICATION_TYPE":"U","NORAD_CAT_ID":21938,"ELEMENT_SET_NO":999,"REV_AT_EPOCH":70299,"BSTAR":2.3454417e-5,"MEAN_MOTION_DOT":3.8e-7,"MEAN_MOTION_DDOT":0},{"OBJECT_NAME":"USA 81","OBJECT_ID":"1992-023A","EPOCH":"2026-03-23T03:23:30.484320","MEAN_MOTION":14.32372157,"ECCENTRICITY":0.00020265,"INCLINATION":85.0058,"RA_OF_ASC_NODE":123.6792,"ARG_OF_PERICENTER":69.0851,"MEAN_ANOMALY":291.0559,"EPHEMERIS_TYPE":0,"CLASSIFICATION_TYPE":"U","NORAD_CAT_ID":21949,"ELEMENT_SET_NO":999,"REV_AT_EPOCH":9671,"BSTAR":5.3620344e-5,"MEAN_MOTION_DOT":1.65e-6,"MEAN_MOTION_DDOT":0},{"OBJECT_NAME":"COSMOS 2219","OBJECT_ID":"1992-076A","EPOCH":"2026-03-23T04:09:44.672544","MEAN_MOTION":14.14092725,"ECCENTRICITY":0.00181959,"INCLINATION":71.0637,"RA_OF_ASC_NODE":349.8839,"ARG_OF_PERICENTER":187.7471,"MEAN_ANOMALY":172.3374,"EPHEMERIS_TYPE":0,"CLASSIFICATION_TYPE":"U","NORAD_CAT_ID":22219,"ELEMENT_SET_NO":999,"REV_AT_EPOCH":72028,"BSTAR":-5.6650702e-5,"MEAN_MOTION_DOT":-1.55e-6,"MEAN_MOTION_DDOT":0},{"OBJECT_NAME":"SL-16 R/B","OBJECT_ID":"1992-076B","EPOCH":"2026-03-23T06:01:59.188800","MEAN_MOTION":14.16862832,"ECCENTRICITY":0.00106262,"INCLINATION":71.0007,"RA_OF_ASC_NODE":159.8087,"ARG_OF_PERICENTER":71.1237,"MEAN_ANOMALY":348.2856,"EPHEMERIS_TYPE":0,"CLASSIFICATION_TYPE":"U","NORAD_CAT_ID":22220,"ELEMENT_SET_NO":999,"REV_AT_EPOCH":72375,"BSTAR":0.00013283049,"MEAN_MOTION_DOT":2.19e-6,"MEAN_MOTION_DDOT":0},{"OBJECT_NAME":"COSMOS 2221","OBJECT_ID":"1992-080A","EPOCH":"2026-03-23T05:07:10.869600","MEAN_MOTION":14.96253423,"ECCENTRICITY":0.00151441,"INCLINATION":82.5002,"RA_OF_ASC_NODE":266.123,"ARG_OF_PERICENTER":142.7903,"MEAN_ANOMALY":217.4372,"EPHEMERIS_TYPE":0,"CLASSIFICATION_TYPE":"U","NORAD_CAT_ID":22236,"ELEMENT_SET_NO":999,"REV_AT_EPOCH":78281,"BSTAR":0.0001841083,"MEAN_MOTION_DOT":2.108e-5,"MEAN_MOTION_DDOT":0},{"OBJECT_NAME":"SL-16 R/B","OBJECT_ID":"1992-093B","EPOCH":"2026-03-23T04:00:14.316768","MEAN_MOTION":14.15450887,"ECCENTRICITY":0.00063357,"INCLINATION":71.0237,"RA_OF_ASC_NODE":335.9762,"ARG_OF_PERICENTER":280.2889,"MEAN_ANOMALY":79.752,"EPHEMERIS_TYPE":0,"CLASSIFICATION_TYPE":"U","NORAD_CAT_ID":22285,"ELEMENT_SET_NO":999,"REV_AT_EPOCH":71506,"BSTAR":0.00020481882,"MEAN_MOTION_DOT":3.52e-6,"MEAN_MOTION_DDOT":0},{"OBJECT_NAME":"COSMOS 2228","OBJECT_ID":"1992-094A","EPOCH":"2026-03-23T05:17:44.958336","MEAN_MOTION":14.97257532,"ECCENTRICITY":0.0016631,"INCLINATION":82.5181,"RA_OF_ASC_NODE":224.3539,"ARG_OF_PERICENTER":255.17,"MEAN_ANOMALY":104.768,"EPHEMERIS_TYPE":0,"CLASSIFICATION_TYPE":"U","NORAD_CAT_ID":22286,"ELEMENT_SET_NO":999,"REV_AT_EPOCH":77808,"BSTAR":0.00024741924,"MEAN_MOTION_DOT":2.898e-5,"MEAN_MOTION_DDOT":0},{"OBJECT_NAME":"SL-16 R/B","OBJECT_ID":"1993-016B","EPOCH":"2026-03-23T05:00:20.475648","MEAN_MOTION":14.15306327,"ECCENTRICITY":0.00123588,"INCLINATION":71.0081,"RA_OF_ASC_NODE":186.7894,"ARG_OF_PERICENTER":296.5502,"MEAN_ANOMALY":63.4353,"EPHEMERIS_TYPE":0,"CLASSIFICATION_TYPE":"U","NORAD_CAT_ID":22566,"ELEMENT_SET_NO":999,"REV_AT_EPOCH":70408,"BSTAR":-8.3872292e-5,"MEAN_MOTION_DOT":-2.11e-6,"MEAN_MOTION_DDOT":0},{"OBJECT_NAME":"COSMOS 2242","OBJECT_ID":"1993-024A","EPOCH":"2026-03-22T22:35:23.256960","MEAN_MOTION":14.96602023,"ECCENTRICITY":0.00149174,"INCLINATION":82.5153,"RA_OF_ASC_NODE":254.0374,"ARG_OF_PERICENTER":260.1161,"MEAN_ANOMALY":99.8378,"EPHEMERIS_TYPE":0,"CLASSIFICATION_TYPE":"U","NORAD_CAT_ID":22626,"ELEMENT_SET_NO":999,"REV_AT_EPOCH":78237,"BSTAR":0.00017916724,"MEAN_MOTION_DOT":2.07e-5,"MEAN_MOTION_DDOT":0}]
